STARLINK-38005          
1 69677U 26145A   26193.57207949  .00182293  00000+0  11967-2 0  9997
2 69677  97.2835  40.2796 0002058 353.0239   7.0997 15.75198008  2760
STARLINK-38009          
1 69678U 26145B   26193.57031500  .00188049  00000+0  12336-2 0  9992
2 69678  97.2840  40.2825 0001720 352.0820   8.0418 15.75197807  2765
STARLINK-37998          
1 69679U 26145C   26193.83335647 -.00188765  00000+0 -12888-2 0  9990
2 69679  97.2847  40.5639 0001231  85.6617 339.0992 15.75261153  4042
STARLINK-37994          
1 69680U 26145D   26193.83335647 -.00180717  00000+0 -12329-2 0  9991
2 69680  97.2845  40.5601 0001230  85.8593 330.9033 15.75257153  4046
STARLINK-37992          
1 69681U 26145E   26193.66668980 -.00233928  00000+0 -16032-2 0  9990
2 69681  97.2847  40.3863 0001451  84.4071 109.8551 15.75296946  4027
STARLINK-37997          
1 69682U 26145F   26193.83335647 -.00192036  00000+0 -13115-2 0  9994
2 69682  97.2847  40.5628 0001214  81.7074 341.0522 15.75264983  4045
STARLINK-37990          
1 69683U 26145G   26193.83335647 -.00044997  00000+0 -30244-3 0  9990
2 69683  97.2882  40.5601 0001123  89.1740 331.6020 15.75187487  4048
STARLINK-37951          
1 69684U 26145H   26193.56749346  .00175315  00000+0  11520-2 0  9998
2 69684  97.2833  40.2831 0002907 350.2135   9.9073 15.75193143  2764
STARLINK-37957          
1 69685U 26145J   26193.56643072  .00145273  00000+0  95792-3 0  9992
2 69685  97.2849  40.2855 0001138  46.3842 313.7518 15.75200867  2763
STARLINK-37968          
1 69686U 26145K   26193.56043139  .00152114  00000+0  10027-2 0  9990
2 69686  97.2842  40.2942 0000728 356.0683   4.0576 15.75189418  2764
STARLINK-37977          
1 69687U 26145L   26193.55972467  .00147191  00000+0  97056-3 0  9992
2 69687  97.2852  40.2944 0000736  57.2871 302.8465 15.75195706  2769
STARLINK-37908          
1 69688U 26145M   26193.55760985  .00184550  00000+0  12108-2 0  9997
2 69688  97.2847  40.2994 0001964 349.8271  10.2954 15.75205318  2761
STARLINK-37979          
1 69689U 26145N   26193.55725742  .00197098  00000+0  12911-2 0  9993
2 69689  97.2843  40.2995 0001623   0.8451 359.2817 15.75205918  2765
STARLINK-37940          
1 69690U 26145P   26193.55619735  .00179408  00000+0  11780-2 0  9997
2 69690  97.2846  40.3012 0001830 356.7785   3.3468 15.75201103  2765
STARLINK-37961          
1 69691U 26145Q   26193.55302126  .00164812  00000+0  10841-2 0  9991
2 69691  97.2840  40.3042 0000744  42.6005 317.5317 15.75201244  2761
STARLINK-37787          
1 69692U 26145R   26193.55090553  .00159042  00000+0  10472-2 0  9999
2 69692  97.2823  40.3075 0000459  60.3317 299.7994 15.75195526  2762
STARLINK-37962          
1 69693U 26145S   26193.54914007  .00167718  00000+0  11029-2 0  9996
2 69693  97.2841  40.3098 0000774  86.0656 274.0698 15.75200972  2768
STARLINK-37953          
1 69694U 26145T   26193.55196368  .00190450  00000+0  12489-2 0  9990
2 69694  97.2834  40.3052 0000556  51.0799 309.0516 15.75200799  2764
STARLINK-37926          
1 69695U 26145U   26193.55125731  .00188040  00000+0  12333-2 0  9997
2 69695  97.2836  40.3070 0000667  51.9081 308.2244 15.75202957  2760
STARLINK-37959          
1 69696U 26145V   26193.55019951  .00188682  00000+0  12376-2 0  9993
2 69696  97.2846  40.3078 0000874  20.6210 339.5090 15.75200390  2762
STARLINK-37976          
1 69697U 26145W   26193.86501184  .00069548  00000+0  46300-3 0  9996
2 69697  97.2846  40.6457 0001175  79.1446 280.9951 15.75208239  2813
STARLINK-37912          
1 69698U 26145X   26193.54631788  .00152275  00000+0  10009-2 0  9992
2 69698  97.2834  40.3146 0001317  98.9676 261.1738 15.75253344  2760
STARLINK-37974          
1 69699U 26145Y   26193.54561330  .00178454  00000+0  11716-2 0  9991
2 69699  97.2833  40.3155 0001411  28.0980 332.0361 15.75206384  2769
STARLINK-37955          
1 69700U 26145Z   26193.79725017  .00233240  00000+0  15179-2 0  9997
2 69700  97.2840  40.5861 0001253  93.1633 266.9775 15.75256512  2805
STRIX-8                 
1 69701U 26146A   26193.82884372  .00002588  00000+0  19548-3 0  9997
2 69701  41.9901  26.2015 0007535   6.4469 353.6454 15.04422405  2429
ELECTRON R/B            
1 69702U 26146B   26193.82058498  .00438829  66907-4  11318-2 0  9990
2 69702  42.0754  17.2673 0175542   3.3402 356.8583 15.73183449  2533
ELECTRON KICK STAGE R/B 
1 69703U 26146C   26193.82332187  .00002448  00000+0  18315-3 0  9997
2 69703  41.9885  26.1563 0009351   7.6630 352.4338 15.04932693  2423
STARLINK-38055          
1 69704U 26147A   26193.63717654  .00211043  00000+0  10755-2 0  9996
2 69704  97.2836 229.8751 0001343 101.4395 258.7024 15.80828378  3451
STARLINK-37898          
1 69705U 26147B   26193.63635287  .00209146  00000+0  10660-2 0  9994
2 69705  97.2838 229.8757 0001357  92.2971 267.8452 15.80830449  3450
STARLINK-37970          
1 69706U 26147C   26193.63560109  .00195907  00000+0  99982-3 0  9999
2 69706  97.2829 229.8770 0001283  99.5118 260.6295 15.80835623  3452
