OBJECT_NAME,OBJECT_ID,EPOCH,MEAN_MOTION,ECCENTRICITY,INCLINATION,RA_OF_ASC_NODE,ARG_OF_PERICENTER,MEAN_ANOMALY,EPHEMERIS_TYPE,CLASSIFICATION_TYPE,NORAD_CAT_ID,ELEMENT_SET_NO,REV_AT_EPOCH,BSTAR,MEAN_MOTION_DOT,MEAN_MOTION_DDOT
STARLINK-38005,2026-145A,2026-07-12T13:43:47.667936,15.75198008,.0002058,97.2835,40.2796,353.0239,7.0997,0,U,69677,999,276,.11967E-2,.182293E-2,0
STARLINK-38009,2026-145B,2026-07-12T13:41:15.216000,15.75197807,.000172,97.2840,40.2825,352.0820,8.0418,0,U,69678,999,276,.12336E-2,.188049E-2,0
STARLINK-37998,2026-145C,2026-07-12T20:00:01.999008,15.75261153,.0001231,97.2847,40.5639,85.6617,339.0992,0,U,69679,999,404,-.12888E-2,-.188765E-2,0
STARLINK-37994,2026-145D,2026-07-12T20:00:01.999008,15.75257153,.000123,97.2845,40.5601,85.8593,330.9033,0,U,69680,999,404,-.12329E-2,-.180717E-2,0
STARLINK-37992,2026-145E,2026-07-12T16:00:01.998720,15.75296946,.0001451,97.2847,40.3863,84.4071,109.8551,0,U,69681,999,402,-.16032E-2,-.233928E-2,0
STARLINK-37997,2026-145F,2026-07-12T20:00:01.999008,15.75264983,.0001214,97.2847,40.5628,81.7074,341.0522,0,U,69682,999,404,-.13115E-2,-.192036E-2,0
STARLINK-37990,2026-145G,2026-07-12T20:00:01.999008,15.75187487,.0001123,97.2882,40.5601,89.1740,331.6020,0,U,69683,999,404,-.30244E-3,-.44997E-3,0
STARLINK-37951,2026-145H,2026-07-12T13:37:11.434944,15.75193143,.0002907,97.2833,40.2831,350.2135,9.9073,0,U,69684,999,276,.1152E-2,.175315E-2,0
STARLINK-37957,2026-145J,2026-07-12T13:35:39.614208,15.75200867,.00011386,97.2849,40.2855,46.3842,313.7518,0,U,69685,999,276,.95791759E-3,.145273E-2,0
STARLINK-37968,2026-145K,2026-07-12T13:27:01.272096,15.75189418,.00007285,97.2842,40.2942,356.0683,4.0576,0,U,69686,999,276,.10026782E-2,.152114E-2,0
STARLINK-37977,2026-145L,2026-07-12T13:26:00.211488,15.75195706,.00007364,97.2852,40.2944,57.2871,302.8465,0,U,69687,999,276,.97055817E-3,.147191E-2,0
STARLINK-37908,2026-145M,2026-07-12T13:22:57.491040,15.75205318,.0001964,97.2847,40.2994,349.8271,10.2954,0,U,69688,999,276,.12108E-2,.18455E-2,0
STARLINK-37979,2026-145N,2026-07-12T13:22:27.041088,15.75205918,.0001623,97.2843,40.2995,0.8451,359.2817,0,U,69689,999,276,.12911E-2,.197098E-2,0
STARLINK-37940,2026-145P,2026-07-12T13:20:55.451040,15.75201103,.000183,97.2846,40.3012,356.7785,3.3468,0,U,69690,999,276,.1178E-2,.179408E-2,0
STARLINK-37961,2026-145Q,2026-07-12T13:16:21.036864,15.75201244,.00007445,97.2840,40.3042,42.6005,317.5317,0,U,69691,999,276,.10841269E-2,.164812E-2,0
STARLINK-37787,2026-145R,2026-07-12T13:13:18.237792,15.75195526,.00004597,97.2823,40.3075,60.3317,299.7994,0,U,69692,999,276,.10471685E-2,.159042E-2,0
STARLINK-37962,2026-145S,2026-07-12T13:10:45.702048,15.75200972,.0000774,97.2841,40.3098,86.0656,274.0698,0,U,69693,999,276,.11028649E-2,.167718E-2,0
STARLINK-37953,2026-145T,2026-07-12T13:14:49.661952,15.75200799,.00005564,97.2834,40.3052,51.0799,309.0516,0,U,69694,999,276,.12488689E-2,.19045E-2,0
STARLINK-37926,2026-145U,2026-07-12T13:13:48.631584,15.75202957,.0000667,97.2836,40.3070,51.9081,308.2244,0,U,69695,999,276,.12333176E-2,.18804E-2,0
STARLINK-37959,2026-145V,2026-07-12T13:12:17.237664,15.75200390,.00008747,97.2846,40.3078,20.6210,339.5090,0,U,69696,999,276,.12375712E-2,.188682E-2,0
STARLINK-37976,2026-145W,2026-07-12T20:45:37.022976,15.75208239,.0001175,97.2846,40.6457,79.1446,280.9951,0,U,69697,999,281,.463E-3,.69548E-3,0
STARLINK-37912,2026-145X,2026-07-12T13:06:41.864832,15.75253344,.0001317,97.2834,40.3146,98.9676,261.1738,0,U,69698,999,276,.10009484E-2,.152275E-2,0
STARLINK-37974,2026-145Y,2026-07-12T13:05:40.989120,15.75206384,.00014117,97.2833,40.3155,28.0980,332.0361,0,U,69699,999,276,.1171641E-2,.178454E-2,0
STARLINK-37955,2026-145Z,2026-07-12T19:08:02.414688,15.75256512,.0001253,97.2840,40.5861,93.1633,266.9775,0,U,69700,999,280,.15179E-2,.23324E-2,0
STRIX-8,2026-146A,2026-07-12T19:53:32.097408,15.04422405,.0007535,41.9901,26.2015,6.4469,353.6454,0,U,69701,999,242,.19548E-3,.2588E-4,0
ELECTRON R/B,2026-146B,2026-07-12T19:41:38.542272,15.73183449,.0175542,42.0754,17.2673,3.3402,356.8583,0,U,69702,999,253,.11318E-2,.438829E-2,.66907E-4
ELECTRON KICK STAGE R/B,2026-146C,2026-07-12T19:45:35.009568,15.04932693,.0009351,41.9885,26.1563,7.6630,352.4338,0,U,69703,999,242,.18315E-3,.2448E-4,0
STARLINK-38055,2026-147A,2026-07-12T15:17:32.053056,15.80828378,.0001343,97.2836,229.8751,101.4395,258.7024,0,U,69704,999,345,.10755E-2,.211043E-2,0
STARLINK-37898,2026-147B,2026-07-12T15:16:20.887968,15.80830449,.0001357,97.2838,229.8757,92.2971,267.8452,0,U,69705,999,345,.1066E-2,.209146E-2,0
STARLINK-37970,2026-147C,2026-07-12T15:15:15.934176,15.80835623,.0001283,97.2829,229.8770,99.5118,260.6295,0,U,69706,999,345,.99982E-3,.195907E-2,0
